DMSP 5D-3 F16 (USA 172) 
1 28054U 03048A   26073.94350504  .00000164  00000+0  10909-3 0  9994
2 28054  98.9987  97.1103 0007985  59.5867   3.5259 14.14464331156165
METEOSAT-9 (MSG-2)      
1 28912U 05049B   26072.50792468  .00000128  00000+0  00000+0 0  9997
2 28912   9.1445  55.0898 0000184  58.1827 286.5308  1.00267419  6037
DMSP 5D-3 F17 (USA 191) 
1 29522U 06050A   26073.91074601  .00000203  00000+0  12760-3 0  9990
2 29522  98.7413  82.3998 0009474 331.3578  28.7074 14.14966670999084
FENGYUN 3A              
1 32958U 08026A   26073.81012632  .00000111  00000+0  73194-4 0  9994
2 32958  98.6801  16.4510 0009536  44.9303 315.2644 14.19548123922011
GOES 14                 
1 35491U 09033A   26073.74984993  .00000109  00000+0  00000+0 0  9996
2 35491   1.4444  84.2599 0001679 274.2567 279.3050  1.00103496  5649
DMSP 5D-3 F18 (USA 210) 
1 35951U 09057A   26073.94558073  .00000286  00000+0  17107-3 0  9997
2 35951  98.8970  54.9575 0011417 153.5771 206.5987 14.14839583846263
EWS-G2 (GOES 15)        
1 36411U 10008A   26073.93761663  .00000021  00000+0  00000+0 0  9994
2 36411   1.0327  84.9029 0002495  17.6924 110.8883  1.00270266 58692
COMS 1                  
1 36744U 10032A   26073.87911639 -.00000343  00000+0  00000+0 0  9991
2 36744   4.5604  76.7042 0000807 289.8327 250.5899  1.00272521 50143
FENGYUN 3B              
1 37214U 10059A   26073.97120617  .00000127  00000+0  89179-4 0  9990
2 37214  98.9763 119.5352 0023153  93.8267   2.0542 14.14819517794101
SUOMI NPP               
1 37849U 11061A   26073.88862260  .00000103  00000+0  69970-4 0  9996
2 37849  98.7875  15.4502 0000700 196.5056 163.6097 14.19545256745069
METEOSAT-10 (MSG-3)     
1 38552U 12035B   26073.78243675 -.00000005  00000+0  00000+0 0  9998
2 38552   4.4468  61.4111 0002349 287.4542 105.3481  1.00269355 49911
METOP-B                 
1 38771U 12049A   26073.86510312  .00000126  00000+0  77704-4 0  9993
2 38771  98.6631 127.1955 0001325 238.3069 121.7979 14.21446515699860
INSAT-3D                
1 39216U 13038B   26073.87937639 -.00000339  00000+0  00000+0 0  9990
2 39216   1.6808  83.7756 0001546 245.2313 289.5671  1.00276246 46138
FENGYUN 3C              
1 39260U 13052A   26073.90577212  .00000153  00000+0  99066-4 0  9994
2 39260  98.4899  52.1535 0013640 297.2014  62.7771 14.15730954645227
METEOR-M 2              
1 40069U 14037A   26073.96273934  .00000010  00000+0  23763-4 0  9990
2 40069  98.5032  53.0818 0005050 320.9181  39.1632 14.21431104605935
HIMAWARI-8              
1 40267U 14060A   26073.88162973 -.00000276  00000+0  00000+0 0  9996
2 40267   0.0044 138.8596 0000266 193.9436 297.7504  1.00271352 41817
FENGYUN 2G              
1 40367U 14090A   26073.94481000 -.00000300  00000+0  00000+0 0  9990
2 40367   5.3991  73.9516 0001448 139.7405  38.7005  1.00270701 41057
