[{"OBJECT_NAME":"DMSP 5D-3 F16 (USA 172)","OBJECT_ID":"2003-048A","EPOCH":"2026-03-14T22:38:38.835456","MEAN_MOTION":14.14464331,"ECCENTRICITY":0.0007985,"INCLINATION":98.9987,"RA_OF_ASC_NODE":97.1103,"ARG_OF_PERICENTER":59.5867,"MEAN_ANOMALY":3.5259,"EPHEMERIS_TYPE":0,"CLASSIFICATION_TYPE":"U","NORAD_CAT_ID":28054,"ELEMENT_SET_NO":999,"REV_AT_EPOCH":15616,"BSTAR":0.00010908761,"MEAN_MOTION_DOT":1.64e-6,"MEAN_MOTION_DDOT":0},{"OBJECT_NAME":"METEOSAT-9 (MSG-2)","OBJECT_ID":"2005-049B","EPOCH":"2026-03-13T12:11:24.692352","MEAN_MOTION":1.00267419,"ECCENTRICITY":1.841e-5,"INCLINATION":9.1445,"RA_OF_ASC_NODE":55.0898,"ARG_OF_PERICENTER":58.1827,"MEAN_ANOMALY":286.5308,"EPHEMERIS_TYPE":0,"CLASSIFICATION_TYPE":"U","NORAD_CAT_ID":28912,"ELEMENT_SET_NO":999,"REV_AT_EPOCH":603,"BSTAR":0,"MEAN_MOTION_DOT":1.28e-6,"MEAN_MOTION_DDOT":0},{"OBJECT_NAME":"DMSP 5D-3 F17 (USA 191)","OBJECT_ID":"2006-050A","EPOCH":"2026-03-14T21:51:28.455264","MEAN_MOTION":14.1496667,"ECCENTRICITY":0.00094742,"INCLINATION":98.7413,"RA_OF_ASC_NODE":82.3998,"ARG_OF_PERICENTER":331.3578,"MEAN_ANOMALY":28.7074,"EPHEMERIS_TYPE":0,"CLASSIFICATION_TYPE":"U","NORAD_CAT_ID":29522,"ELEMENT_SET_NO":999,"REV_AT_EPOCH":99908,"BSTAR":0.00012759619,"MEAN_MOTION_DOT":2.03e-6,"MEAN_MOTION_DDOT":0},{"OBJECT_NAME":"FENGYUN 3A","OBJECT_ID":"2008-026A","EPOCH":"2026-03-14T19:26:34.914048","MEAN_MOTION":14.19548123,"ECCENTRICITY":0.00095362,"INCLINATION":98.6801,"RA_OF_ASC_NODE":16.451,"ARG_OF_PERICENTER":44.9303,"MEAN_ANOMALY":315.2644,"EPHEMERIS_TYPE":0,"CLASSIFICATION_TYPE":"U","NORAD_CAT_ID":32958,"ELEMENT_SET_NO":999,"REV_AT_EPOCH":92201,"BSTAR":7.3194052e-5,"MEAN_MOTION_DOT":1.11e-6,"MEAN_MOTION_DDOT":0},{"OBJECT_NAME":"GOES 14","OBJECT_ID":"2009-033A","EPOCH":"2026-03-14T17:59:47.033952","MEAN_MOTION":1.00103496,"ECCENTRICITY":0.00016794,"INCLINATION":1.4444,"RA_OF_ASC_NODE":84.2599,"ARG_OF_PERICENTER":274.2567,"MEAN_ANOMALY":279.305,"EPHEMERIS_TYPE":0,"CLASSIFICATION_TYPE":"U","NORAD_CAT_ID":35491,"ELEMENT_SET_NO":999,"REV_AT_EPOCH":564,"BSTAR":0,"MEAN_MOTION_DOT":1.09e-6,"MEAN_MOTION_DDOT":0},{"OBJECT_NAME":"DMSP 5D-3 F18 (USA 210)","OBJECT_ID":"2009-057A","EPOCH":"2026-03-14T22:41:38.175072","MEAN_MOTION":14.14839583,"ECCENTRICITY":0.00114178,"INCLINATION":98.897,"RA_OF_ASC_NODE":54.9575,"ARG_OF_PERICENTER":153.5771,"MEAN_ANOMALY":206.5987,"EPHEMERIS_TYPE":0,"CLASSIFICATION_TYPE":"U","NORAD_CAT_ID":35951,"ELEMENT_SET_NO":999,"REV_AT_EPOCH":84626,"BSTAR":0.00017107351,"MEAN_MOTION_DOT":2.86e-6,"MEAN_MOTION_DDOT":0},{"OBJECT_NAME":"EWS-G2 (GOES 15)","OBJECT_ID":"2010-008A","EPOCH":"2026-03-14T22:30:10.076832","MEAN_MOTION":1.00270266,"ECCENTRICITY":0.00024959,"INCLINATION":1.0327,"RA_OF_ASC_NODE":84.9029,"ARG_OF_PERICENTER":17.6924,"MEAN_ANOMALY":110.8883,"EPHEMERIS_TYPE":0,"CLASSIFICATION_TYPE":"U","NORAD_CAT_ID":36411,"ELEMENT_SET_NO":999,"REV_AT_EPOCH":5869,"BSTAR":0,"MEAN_MOTION_DOT":2.1e-7,"MEAN_MOTION_DDOT":0},{"OBJECT_NAME":"COMS 1","OBJECT_ID":"2010-032A","EPOCH":"2026-03-14T21:05:55.656096","MEAN_MOTION":1.00272521,"ECCENTRICITY":8.071e-5,"INCLINATION":4.5604,"RA_OF_ASC_NODE":76.7042,"ARG_OF_PERICENTER":289.8327,"MEAN_ANOMALY":250.5899,"EPHEMERIS_TYPE":0,"CLASSIFICATION_TYPE":"U","NORAD_CAT_ID":36744,"ELEMENT_SET_NO":999,"REV_AT_EPOCH":5014,"BSTAR":0,"MEAN_MOTION_DOT":-3.43e-6,"MEAN_MOTION_DDOT":0},{"OBJECT_NAME":"FENGYUN 3B","OBJECT_ID":"2010-059A","EPOCH":"2026-03-14T23:18:32.213088","MEAN_MOTION":14.14819517,"ECCENTRICITY":0.0023153,"INCLINATION":98.9763,"RA_OF_ASC_NODE":119.5352,"ARG_OF_PERICENTER":93.8267,"MEAN_ANOMALY":2.0542,"EPHEMERIS_TYPE":0,"CLASSIFICATION_TYPE":"U","NORAD_CAT_ID":37214,"ELEMENT_SET_NO":999,"REV_AT_EPOCH":79410,"BSTAR":8.9179336e-5,"MEAN_MOTION_DOT":1.27e-6,"MEAN_MOTION_DDOT":0},{"OBJECT_NAME":"SUOMI NPP","OBJECT_ID":"2011-061A","EPOCH":"2026-03-14T21:19:36.992640","MEAN_MOTION":14.19545256,"ECCENTRICITY":7.003e-5,"INCLINATION":98.7875,"RA_OF_ASC_NODE":15.4502,"ARG_OF_PERICENTER":196.5056,"MEAN_ANOMALY":163.6097,"EPHEMERIS_TYPE":0,"CLASSIFICATION_TYPE":"U","NORAD_CAT_ID":37849,"ELEMENT_SET_NO":999,"REV_AT_EPOCH":74506,"BSTAR":6.9969651e-5,"MEAN_MOTION_DOT":1.03e-6,"MEAN_MOTION_DDOT":0},{"OBJECT_NAME":"METEOSAT-10 (MSG-3)","OBJECT_ID":"2012-035B","EPOCH":"2026-03-14T18:46:42.535200","MEAN_MOTION":1.00269355,"ECCENTRICITY":0.00023496,"INCLINATION":4.4468,"RA_OF_ASC_NODE":61.4111,"ARG_OF_PERICENTER":287.4542,"MEAN_ANOMALY":105.3481,"EPHEMERIS_TYPE":0,"CLASSIFICATION_TYPE":"U","NORAD_CAT_ID":38552,"ELEMENT_SET_NO":999,"REV_AT_EPOCH":4991,"BSTAR":0,"MEAN_MOTION_DOT":-5.0e-8,"MEAN_MOTION_DDOT":0},{"OBJECT_NAME":"METOP-B","OBJECT_ID":"2012-049A","EPOCH":"2026-03-14T20:45:44.909568","MEAN_MOTION":14.21446515,"ECCENTRICITY":0.00013258,"INCLINATION":98.6631,"RA_OF_ASC_NODE":127.1955,"ARG_OF_PERICENTER":238.3069,"MEAN_ANOMALY":121.7979,"EPHEMERIS_TYPE":0,"CLASSIFICATION_TYPE":"U","NORAD_CAT_ID":38771,"ELEMENT_SET_NO":999,"REV_AT_EPOCH":69986,"BSTAR":7.7703568e-5,"MEAN_MOTION_DOT":1.26e-6,"MEAN_MOTION_DDOT":0},{"OBJECT_NAME":"INSAT-3D","OBJECT_ID":"2013-038B","EPOCH":"2026-03-14T21:06:18.120096","MEAN_MOTION":1.00276246,"ECCENTRICITY":0.00015465,"INCLINATION":1.6808,"RA_OF_ASC_NODE":83.7756,"ARG_OF_PERICENTER":245.2313,"MEAN_ANOMALY":289.5671,"EPHEMERIS_TYPE":0,"CLASSIFICATION_TYPE":"U","NORAD_CAT_ID":39216,"ELEMENT_SET_NO":999,"REV_AT_EPOCH":4613,"BSTAR":0,"MEAN_MOTION_DOT":-3.39e-6,"MEAN_MOTION_DDOT":0},{"OBJECT_NAME":"FENGYUN 3C","OBJECT_ID":"2013-052A","EPOCH":"2026-03-14T21:44:18.711168","MEAN_MOTION":14.15730954,"ECCENTRICITY":0.00136405,"INCLINATION":98.4899,"RA_OF_ASC_NODE":52.1535,"ARG_OF_PERICENTER":297.2014,"MEAN_ANOMALY":62.7771,"EPHEMERIS_TYPE":0,"CLASSIFICATION_TYPE":"U","NORAD_CAT_ID":39260,"ELEMENT_SET_NO":999,"REV_AT_EPOCH":64522,"BSTAR":9.9066318e-5,"MEAN_MOTION_DOT":1.53e-6,"MEAN_MOTION_DDOT":0},{"OBJECT_NAME":"METEOR-M 2","OBJECT_ID":"2014-037A","EPOCH":"2026-03-14T23:06:20.678976","MEAN_MOTION":14.21431104,"ECCENTRICITY":0.00050501,"INCLINATION":98.5032,"RA_OF_ASC_NODE":53.0818,"ARG_OF_PERICENTER":320.9181,"MEAN_ANOMALY":39.1632,"EPHEMERIS_TYPE":0,"CLASSIFICATION_TYPE":"U","NORAD_CAT_ID":40069,"ELEMENT_SET_NO":999,"REV_AT_EPOCH":60593,"BSTAR":2.3762797e-5,"MEAN_MOTION_DOT":1.0e-7,"MEAN_MOTION_DDOT":0},{"OBJECT_NAME":"HIMAWARI-8","OBJECT_ID":"2014-060A","EPOCH":"2026-03-14T21:09:32.808672","MEAN_MOTION":1.00271352,"ECCENTRICITY":2.668e-5,"INCLINATION":0.0044,"RA_OF_ASC_NODE":138.8596,"ARG_OF_PERICENTER":193.9436,"MEAN_ANOMALY":297.7504,"EPHEMERIS_TYPE":0,"CLASSIFICATION_TYPE":"U","NORAD_CAT_ID":40267,"ELEMENT_SET_NO":999,"REV_AT_EPOCH":4181,"BSTAR":0,"MEAN_MOTION_DOT":-2.76e-6,"MEAN_MOTION_DDOT":0},{"OBJECT_NAME":"FENGYUN 2G","OBJECT_ID":"2014-090A","EPOCH":"2026-03-14T22:40:31.584000","MEAN_MOTION":1.00270701,"ECCENTRICITY":0.00014487,"INCLINATION":5.3991,"RA_OF_ASC_NODE":73.9516,"ARG_OF_PERICENTER":139.7405,"MEAN_ANOMALY":38.7005,"EPHEMERIS_TYPE":0,"CLASSIFICATION_TYPE":"U","NORAD_CAT_ID":40367,"ELEMENT_SET_NO":999,"REV_AT_EPOCH":4105,"BSTAR":0,"MEAN_MOTION_DOT":-3.0e-6,"MEAN_MOTION_DDOT":0}]
